GPS BIIR-2  (PRN 13)    
1 24876U 97035A   23122.45323428  .00000100  00000+0  00000+0 0  9991
2 24876  55.5626 143.2209 0067098  50.8961 309.7654  2.00564237189054
GPS BIIR-4  (PRN 20)    
1 26360U 00025A   23122.57089926 -.00000038  00000+0  00000+0 0  9990
2 26360  54.3277  65.7203 0042679 197.9518 333.4017  2.00547958168374
GPS BIIR-8  (PRN 16)    
1 27663U 03005A   23122.35486028 -.00000027  00000+0  00000+0 0  9996
2 27663  55.3136 260.3826 0132009  44.3716 311.4104  2.00573242148402
GPS BIIR-9  (PRN 21)    
1 27704U 03010A   23122.49516376 -.00000086  00000+0  00000+0 0  9998
2 27704  55.1029  10.4079 0249102 315.5463 359.1352  2.00569337147207
GPS BIIR-11 (PRN 19)    
1 28190U 04009A   23122.63590948 -.00000040  00000+0  00000+0 0  9990
2 28190  55.7875 321.4156 0091878 131.8925 224.0076  2.00570384140086
GPS BIIR-13 (PRN 02)    
1 28474U 04045A   23122.35740168 -.00000087  00000+0  00000+0 0  9996
2 28474  55.4282  10.6817 0176310 285.8707  14.0671  1.99882408135525
GPS BIIRM-1 (PRN 17)    
1 28874U 05038A   23122.34420920 -.00000038  00000+0  00000+0 0  9999
2 28874  55.8426 318.8742 0137143 279.1640 249.7532  2.00554354128935
GPS BIIRM-2 (PRN 31)    
1 29486U 06042A   23122.81893941  .00000038  00000+0  00000+0 0  9993
2 29486  54.6872 196.5924 0104668  29.0726  27.8209  2.00501286121657
GPS BIIRM-3 (PRN 12)    
1 29601U 06052A   23121.67405373 -.00000029  00000+0  00000+0 0  9995
2 29601  55.3309 259.3621 0086424  77.9382 282.9996  2.00570460120498
GPS BIIRM-4 (PRN 15)    
1 32260U 07047A   23120.48205065  .00000080  00000+0  00000+0 0  9995
2 32260  53.4171 127.3982 0146179  67.9112 293.6754  2.00558656113875
GPS BIIRM-5 (PRN 29)    
1 32384U 07062A   23122.56057796 -.00000039  00000+0  00000+0 0  9991
2 32384  55.9708 319.6691 0023199 139.8027  52.0301  2.00552003112614
GPS BIIRM-6 (PRN 07)    
1 32711U 08012A   23122.39089771  .00000034  00000+0  00000+0 0  9994
2 32711  54.4530 195.4702 0173761 234.3423 124.0928  2.00554186110853
GPS BIIRM-8 (PRN 05)    
1 35752U 09043A   23122.52415755 -.00000021  00000+0  00000+0 0  9994
2 35752  55.3307  72.7111 0056849  64.2298  46.7228  2.00565538100463
GPS BIIF-1  (PRN 25)    
1 36585U 10022A   23122.72007681 -.00000025  00000+0  00000+0 0  9999
2 36585  54.6241 254.6211 0109403  59.4865 310.2336  2.00555507 94691
GPS BIIF-2  (PRN 01)    
1 37753U 11036A   23122.56899007 -.00000086  00000+0  00000+0 0  9993
2 37753  56.7163  16.3035 0125835  54.2092 289.4277  2.00567566 86379
GPS BIIF-3  (PRN 24)    
1 38833U 12053A   23121.57791592  .00000031  00000+0  00000+0 0  9992
2 38833  53.5121 190.3328 0136420  50.4754 310.7907  2.00565371 76527
GPS BIIF-4  (PRN 27)    
1 39166U 13023A   23121.93614316 -.00000037  00000+0  00000+0 0  9995
2 39166  55.4605 315.1368 0114163  40.9512 319.9224  2.00564826 72974
GPS BIIF-5  (PRN 30)    
1 39533U 14008A   23122.43435136  .00000033  00000+0  00000+0 0  9999
2 39533  53.6009 195.8400 0065479 212.7750 146.8817  2.00571417 66789
GPS BIIF-6  (PRN 06)    
1 39741U 14026A   23122.21383047 -.00000087  00000+0  00000+0 0  9999
2 39741  56.6716  15.8404 0029902 313.5422  46.2473  2.00566294 65631
GPS BIIF-7  (PRN 09)    
1 40105U 14045A   23122.30645634  .00000096  00000+0  00000+0 0  9998
2 40105  54.7752 134.0668 0021337 114.5612 245.7128  2.00569118 63174
GPS BIIF-8  (PRN 03)    
1 40294U 14068A   23122.18045639 -.00000013  00000+0  00000+0 0  9997
2 40294  56.0738  75.3740 0045466  56.4894 303.9197  2.00563438 62301
GPS BIIF-9  (PRN 26)    
1 40534U 15013A   23122.31238604 -.00000028  00000+0  00000+0 0  9992
2 40534  53.5230 251.4745 0077995  25.1602 335.1907  2.00562302 58929
GPS BIIF-10 (PRN 08)    
1 40730U 15033A   23122.47300442 -.00000037  00000+0  00000+0 0  9999
2 40730  54.9512 313.7900 0084121  13.4005 346.8389  2.00561786 57091
GPS BIIF-11 (PRN 10)    
1 41019U 15062A   23122.52755449 -.00000014  00000+0  00000+0 0  9994
2 41019  56.0592  75.2084 0086400 222.0871 137.2242  2.00562372 54939
GPS BIIF-12 (PRN 32)    
1 41328U 16007A   23121.61878790  .00000094  00000+0  00000+0 0  9998
2 41328  54.9830 134.8423 0070667 234.4523 124.9385  2.00555920 52921
GPS BIII-1  (PRN 04)    
1 43873U 18109A   23122.47883420  .00000099  00000+0  00000+0 0  9996
2 43873  55.1599 137.2967 0024112 194.8060 316.6983  2.00562997 32173
GPS BIII-2  (PRN 18)    
1 44506U 19056A   23122.83686825 -.00000086  00000+0  00000+0 0  9999
2 44506  55.7927  16.3709 0031311 183.7531 127.2166  2.00563807 27172
GPS BIII-3  (PRN 23)    
1 45854U 20041A   23122.36494594 -.00000018  00000+0  00000+0 0  9995
2 45854  55.7799  73.6638 0031268 187.3281  85.8886  2.00566035 21130
GPS BIII-4  (PRN 14)    
1 46826U 20078A   23122.46351880 -.00000028  00000+0  00000+0 0  9997
2 46826  54.3765 257.1384 0030774 189.9252 130.2050  2.00563182 18608
GPS BIII-5  (PRN 11)    
1 48859U 21054A   23122.45776965 -.00000088  00000+0  00000+0 0  9990
2 48859  55.3066  18.2312 0008819 212.8997 284.8592  2.00556542 13856
GPS BIII-6  (PRN 28)    
1 55268U 23009A   23121.71266997  .00000029  00000+0  00000+0 0  9995
2 55268  55.0917 193.3410 0005366 101.7716 261.4761  2.00563923  2334
